{
    "links": {
        "self": "http://www.neowsapp.com/rest/v1/neo/3943363?api_key=iIulBulltgU6a56xZRHN4H3l9WmuAYTsLGpBGhQ2"
    },
    "id": "3943363",
    "neo_reference_id": "3943363",
    "name": "(2019 YA2)",
    "designation": "2019 YA2",
    "nasa_jpl_url": "http://ssd.jpl.nasa.gov/sbdb.cgi?sstr=3943363",
    "absolute_magnitude_h": 22.9,
    "estimated_diameter": {
        "kilometers": {
            "estimated_diameter_min": 0.0699125232,
            "estimated_diameter_max": 0.1563291544
        },
        "meters": {
            "estimated_diameter_min": 69.9125232246,
            "estimated_diameter_max": 156.3291544087
        },
        "miles": {
            "estimated_diameter_min": 0.0434416145,
            "estimated_diameter_max": 0.097138403
        },
        "feet": {
            "estimated_diameter_min": 229.3718026961,
            "estimated_diameter_max": 512.8909429502
        }
    },
    "is_potentially_hazardous_asteroid": false,
    "close_approach_data": [
        {
            "close_approach_date": "1951-01-12",
            "close_approach_date_full": "1951-Jan-12 19:08",
            "epoch_date_close_approach": -598596720000,
            "relative_velocity": {
                "kilometers_per_second": "32.4938262544",
                "kilometers_per_hour": "116977.774515674",
                "miles_per_hour": "72685.4399483642"
            },
            "miss_distance": {
                "astronomical": "0.4714399181",
                "lunar": "183.3901281409",
                "kilometers": "70526407.580734447",
                "miles": "43823077.5675594886"
            },
            "orbiting_body": "Earth"
        },
        {
            "close_approach_date": "2019-12-05",
            "close_approach_date_full": "2019-Dec-05 23:32",
            "epoch_date_close_approach": 1575588720000,
            "relative_velocity": {
                "kilometers_per_second": "14.4826537938",
                "kilometers_per_hour": "52137.553657842",
                "miles_per_hour": "32396.2482714519"
            },
            "miss_distance": {
                "astronomical": "0.1237689671",
                "lunar": "48.1461282019",
                "kilometers": "18515573.850260077",
                "miles": "11505044.0945679826"
            },
            "orbiting_body": "Earth"
        },
        {
            "close_approach_date": "2061-03-01",
            "close_approach_date_full": "2061-Mar-01 20:27",
            "epoch_date_close_approach": 2876934420000,
            "relative_velocity": {
                "kilometers_per_second": "16.8169998437",
                "kilometers_per_hour": "60541.1994373283",
                "miles_per_hour": "37617.9469503777"
            },
            "miss_distance": {
                "astronomical": "0.1024186237",
                "lunar": "39.8408446193",
                "kilometers": "15321607.953851519",
                "miles": "9520405.7154442022"
            },
            "orbiting_body": "Venus"
        },
        {
            "close_approach_date": "2064-07-11",
            "close_approach_date_full": "2064-Jul-11 11:24",
            "epoch_date_close_approach": 2983001040000,
            "relative_velocity": {
                "kilometers_per_second": "23.9638379422",
                "kilometers_per_hour": "86269.8165919362",
                "miles_per_hour": "53604.7090929172"
            },
            "miss_distance": {
                "astronomical": "0.1994472353",
                "lunar": "77.5849745317",
                "kilometers": "29836881.578268811",
                "miles": "18539778.5117831518"
            },
            "orbiting_body": "Earth"
        }
    ],
    "orbital_data": {
        "orbit_id": "12",
        "orbit_determination_date": "2020-01-19 05:17:27",
        "first_observation_date": "2019-12-20",
        "last_observation_date": "2020-01-19",
        "data_arc_in_days": 30,
        "observations_used": 83,
        "orbit_uncertainty": "7",
        "minimum_orbit_intersection": ".0125107",
        "jupiter_tisserand_invariant": "3.240",
        "epoch_osculation": "2459000.5",
        "eccentricity": ".6834795449259453",
        "semi_major_axis": "2.285292092336942",
        "inclination": "5.241478478332037",
        "ascending_node_longitude": "93.19048467352772",
        "orbital_period": "1261.859501437226",
        "perihelion_distance": ".7233416930436275",
        "perihelion_argument": "282.2228338760982",
        "aphelion_distance": "3.847242491630257",
        "perihelion_time": "2458786.027047963225",
        "mean_anomaly": "61.18768582817547",
        "mean_motion": ".2852932514198047",
        "equinox": "J2000",
        "orbit_class": {
            "orbit_class_type": "APO",
            "orbit_class_description": "Near-Earth asteroid orbits which cross the Earth’s orbit similar to that of 1862 Apollo",
            "orbit_class_range": "a (semi-major axis) > 1.0 AU; q (perihelion) < 1.017 AU"
        }
    },
    "is_sentry_object": false
}